{"type":"FeatureCollection","metadata":{"source":"demo","years":[2001,2002,2003,2004,2005,2006,2007,2008,2009,2010,2011,2012,2013,2014,2015,2016,2017,2018,2019,2020,2021,2022,2023,2024],"resolution":5,"canopyThreshold":30,"generated":"2026-09-29T06:07:12+00:00","note":"Synthetic demo data, not real satellite data \u2014 see ml-service/scripts/README.md to generate this from real Hansen Global Forest Change tiles."},"features":[{"type":"Feature","properties":{"h3":"857a4183fffffff","canopy2000":26.9,"treeHa2000":3759.4,"loss":[3.2,3.1,3.6,3.8,2.5,3.7,3.2,3.2,2.3,3.2,3.8,3.3,4.2,2.6,2.6,3.3,3.0,3.6,2.7,2.2,3.5,3.5,2.5,2.5]},"geometry":{"type":"Polygon","coordinates":[[[36.7276,-0.0261],[36.7295,0.0653],[36.6498,0.1151],[36.5681,0.0736],[36.5661,-0.0179],[36.6459,-0.0677],[36.7276,-0.0261]]]}},{"type":"Feature","properties":{"h3":"857a4187fffffff","canopy2000":33.7,"treeHa2000":4261.2,"loss":[3.0,3.9,3.8,3.7,3.5,3.6,2.8,3.4,3.5,3.9,3.5,3.1,4.5,3.5,4.2,4.1,3.1,3.2,3.1,2.8,2.9,3.6,4.1,3.3]},"geometry":{"type":"Polygon","coordinates":[[[36.5661,-0.0179],[36.5681,0.0736],[36.4884,0.1234],[36.4066,0.0818],[36.4045,-0.0097],[36.4843,-0.0595],[36.5661,-0.0179]]]}},{"type":"Feature","properties":{"h3":"857a4193fffffff","canopy2000":46.5,"treeHa2000":22929.9,"loss":[20.6,18.8,18.5,18.4,19.8,18.1,18.7,18.8,20.4,19.2,21.8,19.2,19.8,20.7,19.9,19.2,18.9,19.2,19.7,20.1,18.3,21.2,20.3,19.7]},"geometry":{"type":"Polygon","coordinates":[[[36.8054,-0.1673],[36.8073,-0.0759],[36.7276,-0.0261],[36.6459,-0.0677],[36.6439,-0.1592],[36.7237,-0.209],[36.8054,-0.1673]]]}},{"type":"Feature","properties":{"h3":"857a4197fffffff","canopy2000":30.6,"treeHa2000":14467.1,"loss":[12.4,12.3,12.9,13.1,12.9,12.8,10.8,11.8,12.7,11.2,12.1,13.8,12.0,12.1,11.9,11.8,10.8,13.1,12.8,12.1,11.5,11.6,12.7,12.3]},"geometry":{"type":"Polygon","coordinates":[[[36.6439,-0.1592],[36.6459,-0.0677],[36.5661,-0.0179],[36.4843,-0.0595],[36.4823,-0.151],[36.5621,-0.2009],[36.6439,-0.1592]]]}},{"type":"Feature","properties":{"h3":"857a419bfffffff","canopy2000":66.8,"treeHa2000":10306.8,"loss":[8.3,8.0,8.5,8.9,8.1,8.5,8.5,7.1,9.2,8.6,9.9,8.5,9.6,8.2,8.1,8.8,9.5,9.7,8.3,8.9,8.4,7.9,8.0,7.8]},"geometry":{"type":"Polygon","coordinates":[[[36.889,-0.0342],[36.8908,0.0571],[36.8112,0.1069],[36.7295,0.0653],[36.7276,-0.0261],[36.8073,-0.0759],[36.889,-0.0342]]]}},{"type":"Feature","properties":{"h3":"857a41b3fffffff","canopy2000":78.3,"treeHa2000":5524.4,"loss":[4.9,5.0,4.8,4.5,4.3,5.2,5.8,4.5,4.2,5.2,5.2,4.8,3.2,3.8,3.9,3.8,3.8,5.1,5.5,4.2,5.2,4.4,3.6,4.5]},"geometry":{"type":"Polygon","coordinates":[[[36.4045,-0.0097],[36.4066,0.0818],[36.3268,0.1316],[36.2449,0.09],[36.2428,-0.0015],[36.3226,-0.0513],[36.4045,-0.0097]]]}},{"type":"Feature","properties":{"h3":"857a41b7fffffff","canopy2000":16.5,"treeHa2000":738.5,"loss":[0.5,0.6,0.8,0.9,0.6,0.5,0.4,0.4,0.6,0.4,0.6,0.8,0.5,0.4,0.7,0.9,0.4,0.5,0.9,0.6,0.5,0.7,0.4,0.8]},"geometry":{"type":"Polygon","coordinates":[[[36.2428,-0.0015],[36.2449,0.09],[36.1651,0.1398],[36.0832,0.0983],[36.081,0.0068],[36.1608,-0.0431],[36.2428,-0.0015]]]}},{"type":"Feature","properties":{"h3":"857a452bfffffff","canopy2000":59.9,"treeHa2000":26683.1,"loss":[22.5,20.8,24.2,21.3,23.6,22.7,22.4,22.5,22.5,21.2,21.3,23.9,20.1,22.7,22.5,20.5,20.8,20.0,23.3,20.0,21.8,24.5,22.5,20.1]},"geometry":{"type":"Polygon","coordinates":[[[36.8833,-0.3087],[36.8852,-0.2172],[36.8054,-0.1673],[36.7237,-0.209],[36.7218,-0.3006],[36.8016,-0.3505],[36.8833,-0.3087]]]}},{"type":"Feature","properties":{"h3":"857a452ffffffff","canopy2000":54.6,"treeHa2000":25235.8,"loss":[19.7,18.8,21.2,18.4,20.9,19.9,21.8,20.8,19.6,19.7,20.8,21.5,20.8,21.6,22.1,20.2,21.3,19.8,22.5,19.5,20.2,20.1,21.1,20.8]},"geometry":{"type":"Polygon","coordinates":[[[36.7218,-0.3006],[36.7237,-0.209],[36.6439,-0.1592],[36.5621,-0.2009],[36.5601,-0.2925],[36.64,-0.3424],[36.7218,-0.3006]]]}},{"type":"Feature","properties":{"h3":"857a4563fffffff","canopy2000":12.9,"treeHa2000":4061.1,"loss":[2.9,3.2,2.6,3.8,3.2,2.7,3.3,2.7,3.5,2.8,3.7,3.5,3.4,3.9,3.6,3.7,3.7,4.3,3.6,3.7,3.2,2.8,3.2,4.2]},"geometry":{"type":"Polygon","coordinates":[[[37.1282,-0.1836],[37.1299,-0.0922],[37.0502,-0.0424],[36.9687,-0.084],[36.9669,-0.1755],[37.0466,-0.2253],[37.1282,-0.1836]]]}},{"type":"Feature","properties":{"h3":"857a4567fffffff","canopy2000":78.8,"treeHa2000":27044.3,"loss":[20.8,22.5,21.2,21.5,21.4,22.4,21.5,22.8,23.7,22.3,22.5,23.3,21.1,23.2,23.8,23.2,21.2,22.6,22.9,24.8,22.3,21.6,22.8,21.5]},"geometry":{"type":"Polygon","coordinates":[[[36.9669,-0.1755],[36.9687,-0.084],[36.889,-0.0342],[36.8073,-0.0759],[36.8054,-0.1673],[36.8852,-0.2172],[36.9669,-0.1755]]]}},{"type":"Feature","properties":{"h3":"857a456ffffffff","canopy2000":65.2,"treeHa2000":8739.4,"loss":[7.2,8.0,8.5,7.2,6.0,7.8,6.9,8.4,6.1,7.7,6.5,7.5,6.6,7.2,6.0,8.1,5.1,7.1,6.4,8.0,8.4,7.0,7.9,7.7]},"geometry":{"type":"Polygon","coordinates":[[[37.0502,-0.0424],[37.052,0.0489],[36.9724,0.0987],[36.8908,0.0571],[36.889,-0.0342],[36.9687,-0.084],[37.0502,-0.0424]]]}},{"type":"Feature","properties":{"h3":"857a4577fffffff","canopy2000":45.8,"treeHa2000":20177.1,"loss":[15.8,18.6,16.2,17.9,17.9,16.3,16.7,17.2,16.5,16.0,17.5,14.5,16.1,15.9,18.8,18.1,17.5,17.0,18.4,18.2,13.9,15.7,18.3,16.5]},"geometry":{"type":"Polygon","coordinates":[[[37.0448,-0.3168],[37.0466,-0.2253],[36.9669,-0.1755],[36.8852,-0.2172],[36.8833,-0.3087],[36.9632,-0.3586],[37.0448,-0.3168]]]}},{"type":"Feature","properties":{"h3":"857a6a43fffffff","canopy2000":64.0,"treeHa2000":26784.8,"loss":[23.9,21.5,20.2,20.8,20.2,24.0,22.1,23.2,21.0,22.2,22.6,21.8,22.0,22.2,22.8,22.2,22.0,21.3,20.4,22.5,21.3,23.0,24.5,22.2]},"geometry":{"type":"Polygon","coordinates":[[[36.3983,-0.2844],[36.4004,-0.1927],[36.3205,-0.1429],[36.2386,-0.1846],[36.2364,-0.2763],[36.3163,-0.3262],[36.3983,-0.2844]]]}},{"type":"Feature","properties":{"h3":"857a6a47fffffff","canopy2000":14.0,"treeHa2000":5497.6,"loss":[4.0,4.7,5.1,4.9,5.1,4.2,4.2,5.2,4.5,5.0,5.3,5.2,3.7,5.0,4.1,4.1,5.4,4.5,4.4,4.8,5.3,4.1,4.8,5.2]},"geometry":{"type":"Polygon","coordinates":[[[36.2364,-0.2763],[36.2386,-0.1846],[36.1587,-0.1347],[36.0766,-0.1764],[36.0744,-0.2681],[36.1544,-0.3181],[36.2364,-0.2763]]]}},{"type":"Feature","properties":{"h3":"857a6a4bfffffff","canopy2000":57.5,"treeHa2000":25563.0,"loss":[20.0,24.2,21.7,20.3,21.1,20.0,20.6,21.8,21.8,21.8,21.0,21.2,22.0,20.8,24.8,22.8,18.8,22.5,21.6,19.5,18.9,19.2,18.0,18.2]},"geometry":{"type":"Polygon","coordinates":[[[36.4823,-0.151],[36.4843,-0.0595],[36.4045,-0.0097],[36.3226,-0.0513],[36.3205,-0.1429],[36.4004,-0.1927],[36.4823,-0.151]]]}},{"type":"Feature","properties":{"h3":"857a6a4ffffffff","canopy2000":68.3,"treeHa2000":21537.8,"loss":[17.8,18.0,17.0,18.8,14.8,17.4,18.0,16.8,19.2,16.7,16.7,18.0,17.8,17.5,16.2,17.1,16.6,18.2,16.8,18.6,18.2,17.2,17.7,17.0]},"geometry":{"type":"Polygon","coordinates":[[[36.3205,-0.1429],[36.3226,-0.0513],[36.2428,-0.0015],[36.1608,-0.0431],[36.1587,-0.1347],[36.2386,-0.1846],[36.3205,-0.1429]]]}},{"type":"Feature","properties":{"h3":"857a6a5bfffffff","canopy2000":55.3,"treeHa2000":25766.6,"loss":[19.3,19.7,19.8,18.7,22.0,21.0,22.1,20.3,22.4,20.6,22.1,21.3,20.5,21.2,21.3,22.2,21.2,20.0,20.2,20.4,21.2,20.5,23.2,20.2]},"geometry":{"type":"Polygon","coordinates":[[[36.5601,-0.2925],[36.5621,-0.2009],[36.4823,-0.151],[36.4004,-0.1927],[36.3983,-0.2844],[36.4782,-0.3343],[36.5601,-0.2925]]]}},{"type":"Feature","properties":{"h3":"857a450ffffffff","canopy2000":6.7,"treeHa2000":3216.0,"loss":[3.1,2.6,3.2,3.2,3.4,2.5,2.7,3.7,2.7,2.1,2.8,2.9,2.3,2.5,3.1,2.7,2.5,2.2,2.6,2.8,1.8,3.2,2.5,2.6]},"geometry":{"type":"Polygon","coordinates":[[[37.1228,-0.4583],[37.1246,-0.3666],[37.0448,-0.3168],[36.9632,-0.3586],[36.9613,-0.4502],[37.0412,-0.5001],[37.1228,-0.4583]]]}},{"type":"Feature","properties":{"h3":"857a4523fffffff","canopy2000":70.5,"treeHa2000":27144.6,"loss":[21.0,23.6,20.5,22.7,21.0,20.7,22.2,23.5,23.3,20.5,24.0,22.1,23.5,21.1,24.4,21.6,26.0,21.5,22.2,25.5,21.5,22.2,22.0,21.7]},"geometry":{"type":"Polygon","coordinates":[[[36.7997,-0.4422],[36.8016,-0.3505],[36.7218,-0.3006],[36.64,-0.3424],[36.638,-0.4341],[36.7179,-0.484],[36.7997,-0.4422]]]}},{"type":"Feature","properties":{"h3":"857a4527fffffff","canopy2000":79.5,"treeHa2000":27173.2,"loss":[22.6,25.1,22.4,21.7,21.4,23.0,21.6,22.8,22.8,23.8,21.5,21.3,21.0,22.7,22.6,23.2,23.8,23.6,22.2,23.2,22.0,21.5,23.9,23.3]},"geometry":{"type":"Polygon","coordinates":[[[36.638,-0.4341],[36.64,-0.3424],[36.5601,-0.2925],[36.4782,-0.3343],[36.4762,-0.426],[36.5561,-0.476],[36.638,-0.4341]]]}},{"type":"Feature","properties":{"h3":"857a453bfffffff","canopy2000":43.0,"treeHa2000":21376.7,"loss":[18.8,17.4,17.2,20.7,19.2,18.6,17.3,17.8,17.0,19.1,18.7,17.5,17.5,20.8,20.5,17.1,16.2,17.6,17.5,18.2,18.2,19.8,17.7,19.5]},"geometry":{"type":"Polygon","coordinates":[[[36.9613,-0.4502],[36.9632,-0.3586],[36.8833,-0.3087],[36.8016,-0.3505],[36.7997,-0.4422],[36.8796,-0.4921],[36.9613,-0.4502]]]}},{"type":"Feature","properties":{"h3":"857a6a53fffffff","canopy2000":60.3,"treeHa2000":26786.8,"loss":[22.1,23.7,21.4,20.8,24.1,21.9,21.7,22.8,21.5,22.0,24.2,23.6,21.2,22.4,23.9,22.4,21.6,21.8,21.8,21.2,19.1,21.8,21.6,23.5]},"geometry":{"type":"Polygon","coordinates":[[[36.4762,-0.426],[36.4782,-0.3343],[36.3983,-0.2844],[36.3163,-0.3262],[36.3142,-0.418],[36.3942,-0.4679],[36.4762,-0.426]]]}},{"type":"Feature","properties":{"h3":"857a6a57fffffff","canopy2000":31.5,"treeHa2000":15992.2,"loss":[13.1,13.6,15.9,13.5,12.4,14.7,12.1,12.9,12.5,12.8,12.4,13.8,12.6,14.2,12.1,14.1,13.8,14.5,11.5,12.7,11.9,13.8,14.4,13.0]},"geometry":{"type":"Polygon","coordinates":[[[36.3142,-0.418],[36.3163,-0.3262],[36.2364,-0.2763],[36.1544,-0.3181],[36.1522,-0.4099],[36.2322,-0.4598],[36.3142,-0.418]]]}},{"type":"Feature","properties":{"h3":"857a4507fffffff","canopy2000":19.3,"treeHa2000":7670.8,"loss":[7.2,5.5,5.8,4.4,7.2,5.7,6.3,5.7,7.2,7.0,5.7,5.2,5.3,5.8,6.1,5.9,6.1,7.4,6.2,6.1,6.7,5.6,6.6,6.4]},"geometry":{"type":"Polygon","coordinates":[[[37.0393,-0.5918],[37.0412,-0.5001],[36.9613,-0.4502],[36.8796,-0.4921],[36.8777,-0.5838],[36.9576,-0.6337],[37.0393,-0.5918]]]}},{"type":"Feature","properties":{"h3":"857a4533fffffff","canopy2000":55.3,"treeHa2000":24848.9,"loss":[20.9,22.3,19.5,19.4,22.2,20.4,19.9,18.4,20.7,19.7,18.2,21.5,21.4,18.2,21.8,20.4,21.8,19.5,20.4,18.6,22.1,20.7,21.7,22.1]},"geometry":{"type":"Polygon","coordinates":[[[36.8777,-0.5838],[36.8796,-0.4921],[36.7997,-0.4422],[36.7179,-0.484],[36.716,-0.5758],[36.7959,-0.6257],[36.8777,-0.5838]]]}},{"type":"Feature","properties":{"h3":"857a4537fffffff","canopy2000":89.6,"treeHa2000":27693.1,"loss":[24.0,24.5,24.5,22.4,21.1,23.8,22.6,22.8,20.2,21.5,23.6,24.7,22.8,25.4,23.2,20.8,24.2,24.1,24.8,23.8,26.0,22.5,22.1,22.0]},"geometry":{"type":"Polygon","coordinates":[[[36.716,-0.5758],[36.7179,-0.484],[36.638,-0.4341],[36.5561,-0.476],[36.5541,-0.5678],[36.634,-0.6177],[36.716,-0.5758]]]}},{"type":"Feature","properties":{"h3":"857a45abfffffff","canopy2000":41.3,"treeHa2000":20880.4,"loss":[18.2,18.2,18.8,16.9,16.8,19.3,19.5,17.7,16.7,16.1,18.9,16.5,18.5,16.0,16.0,16.2,17.7,16.5,16.6,16.1,15.8,18.1,17.1,18.7]},"geometry":{"type":"Polygon","coordinates":[[[36.9558,-0.7256],[36.9576,-0.6337],[36.8777,-0.5838],[36.7959,-0.6257],[36.794,-0.7176],[36.8739,-0.7676],[36.9558,-0.7256]]]}},{"type":"Feature","properties":{"h3":"857a45affffffff","canopy2000":74.6,"treeHa2000":27570.4,"loss":[23.2,25.8,22.1,22.8,22.4,23.1,23.5,24.9,24.1,22.5,23.1,23.4,22.2,24.6,21.4,23.1,24.5,23.2,21.5,24.0,22.8,22.2,22.4,22.7]},"geometry":{"type":"Polygon","coordinates":[[[36.794,-0.7176],[36.7959,-0.6257],[36.716,-0.5758],[36.634,-0.6177],[36.6321,-0.7096],[36.7121,-0.7596],[36.794,-0.7176]]]}},{"type":"Feature","properties":{"h3":"857a6a1bfffffff","canopy2000":3.3,"treeHa2000":1227.4,"loss":[0.8,0.8,0.8,0.4,1.1,0.6,0.8,1.2,0.8,1.1,0.8,0.8,1.0,1.3,0.9,0.6,0.9,0.9,0.8,0.5,1.3,1.5,1.1,0.8]},"geometry":{"type":"Polygon","coordinates":[[[36.23,-0.5517],[36.2322,-0.4598],[36.1522,-0.4099],[36.07,-0.4517],[36.0678,-0.5437],[36.1479,-0.5937],[36.23,-0.5517]]]}},{"type":"Feature","properties":{"h3":"857a6ac3fffffff","canopy2000":58.5,"treeHa2000":25631.2,"loss":[22.1,23.6,22.5,22.0,20.4,19.8,21.4,20.2,19.8,23.2,22.0,20.8,21.1,21.8,22.3,21.5,21.8,20.2,21.7,21.1,20.5,22.1,21.5,20.5]},"geometry":{"type":"Polygon","coordinates":[[[36.4701,-0.7017],[36.4721,-0.6097],[36.3921,-0.5598],[36.31,-0.6017],[36.3079,-0.6937],[36.388,-0.7437],[36.4701,-0.7017]]]}},{"type":"Feature","properties":{"h3":"857a6ac7fffffff","canopy2000":21.9,"treeHa2000":10389.0,"loss":[7.9,8.6,9.5,8.6,7.8,9.2,9.0,8.5,8.0,9.8,8.7,8.7,9.2,8.2,8.5,9.4,8.5,9.4,8.1,9.3,8.4,8.6,9.4,9.3]},"geometry":{"type":"Polygon","coordinates":[[[36.3079,-0.6937],[36.31,-0.6017],[36.23,-0.5517],[36.1479,-0.5937],[36.1457,-0.6857],[36.2258,-0.7357],[36.3079,-0.6937]]]}},{"type":"Feature","properties":{"h3":"857a6acbfffffff","canopy2000":79.7,"treeHa2000":27748.0,"loss":[24.6,19.5,22.5,24.6,22.8,23.9,19.7,22.4,21.3,22.2,24.2,24.2,20.2,22.8,23.2,23.2,25.5,22.3,24.2,22.8,21.9,22.4,22.0,22.9]},"geometry":{"type":"Polygon","coordinates":[[[36.5541,-0.5678],[36.5561,-0.476],[36.4762,-0.426],[36.3942,-0.4679],[36.3921,-0.5598],[36.4721,-0.6097],[36.5541,-0.5678]]]}},{"type":"Feature","properties":{"h3":"857a6acffffffff","canopy2000":37.8,"treeHa2000":18214.0,"loss":[13.7,17.5,14.6,16.2,14.1,15.2,13.8,15.8,15.1,15.4,16.4,17.0,15.5,16.8,16.5,14.3,16.3,15.8,14.4,14.5,16.0,17.0,14.2,13.6]},"geometry":{"type":"Polygon","coordinates":[[[36.3921,-0.5598],[36.3942,-0.4679],[36.3142,-0.418],[36.2322,-0.4598],[36.23,-0.5517],[36.31,-0.6017],[36.3921,-0.5598]]]}},{"type":"Feature","properties":{"h3":"857a6adbfffffff","canopy2000":85.7,"treeHa2000":27197.8,"loss":[21.8,24.7,21.2,22.4,22.7,22.5,23.2,24.5,22.3,22.9,20.5,22.2,19.8,20.5,24.8,24.5,23.5,22.8,21.3,21.3,21.0,22.9,22.3,24.1]},"geometry":{"type":"Polygon","coordinates":[[[36.6321,-0.7096],[36.634,-0.6177],[36.5541,-0.5678],[36.4721,-0.6097],[36.4701,-0.7017],[36.5501,-0.7516],[36.6321,-0.7096]]]}},{"type":"Feature","properties":{"h3":"857a4517fffffff","canopy2000":6.6,"treeHa2000":3144.2,"loss":[3.0,1.4,2.0,2.3,2.5,2.7,3.0,3.2,2.4,2.3,1.7,2.5,2.2,2.8,2.8,3.2,3.0,3.0,3.5,2.5,2.0,3.2,1.8,3.5]},"geometry":{"type":"Polygon","coordinates":[[[37.1174,-0.7335],[37.1192,-0.6417],[37.0393,-0.5918],[36.9576,-0.6337],[36.9558,-0.7256],[37.0357,-0.7755],[37.1174,-0.7335]]]}},{"type":"Feature","properties":{"h3":"857a45a3fffffff","canopy2000":59.4,"treeHa2000":26510.0,"loss":[22.7,21.9,23.9,20.1,23.5,19.3,22.8,24.0,22.6,21.2,24.1,21.8,22.4,22.1,23.8,22.2,22.1,21.8,22.6,21.5,22.0,20.9,20.9,23.5]},"geometry":{"type":"Polygon","coordinates":[[[36.872,-0.8595],[36.8739,-0.7676],[36.794,-0.7176],[36.7121,-0.7596],[36.7101,-0.8516],[36.7901,-0.9016],[36.872,-0.8595]]]}},{"type":"Feature","properties":{"h3":"857a45a7fffffff","canopy2000":64.1,"treeHa2000":26708.3,"loss":[21.9,24.8,24.4,22.7,20.6,24.9,21.8,22.2,24.0,23.2,21.8,18.2,23.8,22.9,22.6,24.8,21.2,23.4,21.1,21.6,23.5,24.2,22.0,20.5]},"geometry":{"type":"Polygon","coordinates":[[[36.7101,-0.8516],[36.7121,-0.7596],[36.6321,-0.7096],[36.5501,-0.7516],[36.5481,-0.8437],[36.6281,-0.8937],[36.7101,-0.8516]]]}},{"type":"Feature","properties":{"h3":"857a45bbfffffff","canopy2000":48.5,"treeHa2000":21823.0,"loss":[19.6,17.1,18.2,16.8,17.2,17.8,18.5,17.2,19.0,17.6,16.3,19.2,17.7,16.2,17.4,17.2,18.9,18.6,19.8,19.2,17.9,17.1,16.4,20.1]},"geometry":{"type":"Polygon","coordinates":[[[37.0339,-0.8674],[37.0357,-0.7755],[36.9558,-0.7256],[36.8739,-0.7676],[36.872,-0.8595],[36.952,-0.9095],[37.0339,-0.8674]]]}},{"type":"Feature","properties":{"h3":"857a6a8bfffffff","canopy2000":5.5,"treeHa2000":2715.0,"loss":[1.4,2.5,2.4,2.2,3.0,2.3,3.1,2.2,2.4,1.9,2.5,2.2,2.5,2.5,2.1,2.8,1.8,2.2,2.1,2.5,2.9,2.2,1.4,2.8]},"geometry":{"type":"Polygon","coordinates":[[[36.2236,-0.8278],[36.2258,-0.7357],[36.1457,-0.6857],[36.0634,-0.7277],[36.0612,-0.8198],[36.1414,-0.8698],[36.2236,-0.8278]]]}},{"type":"Feature","properties":{"h3":"857a6ad3fffffff","canopy2000":63.0,"treeHa2000":27310.4,"loss":[23.3,24.5,22.7,22.5,24.6,24.4,24.3,25.8,21.2,22.9,23.0,21.6,21.5,23.1,21.8,21.9,24.7,24.1,22.4,23.0,23.1,20.8,21.4,23.6]},"geometry":{"type":"Polygon","coordinates":[[[36.5481,-0.8437],[36.5501,-0.7516],[36.4701,-0.7017],[36.388,-0.7437],[36.3859,-0.8357],[36.466,-0.8857],[36.5481,-0.8437]]]}},{"type":"Feature","properties":{"h3":"857a6ad7fffffff","canopy2000":54.5,"treeHa2000":26170.7,"loss":[21.8,19.2,21.9,21.7,22.2,23.6,19.3,23.5,23.8,23.6,22.8,23.5,20.6,20.5,21.7,23.5,22.4,23.5,19.3,22.2,19.3,21.0,20.6,19.9]},"geometry":{"type":"Polygon","coordinates":[[[36.3859,-0.8357],[36.388,-0.7437],[36.3079,-0.6937],[36.2258,-0.7357],[36.2236,-0.8278],[36.3037,-0.8778],[36.3859,-0.8357]]]}},{"type":"Feature","properties":{"h3":"857a4587fffffff","canopy2000":24.2,"treeHa2000":6275.7,"loss":[4.7,5.1,5.0,6.2,4.9,5.8,5.0,6.1,5.5,5.4,5.1,4.5,5.3,3.8,5.1,4.9,4.7,5.6,5.0,4.8,4.7,4.8,5.6,5.2]},"geometry":{"type":"Polygon","coordinates":[[[37.1121,-1.0094],[37.1138,-0.9174],[37.0339,-0.8674],[36.952,-0.9095],[36.9502,-1.0015],[37.0302,-1.0515],[37.1121,-1.0094]]]}},{"type":"Feature","properties":{"h3":"857a45b3fffffff","canopy2000":73.0,"treeHa2000":23160.6,"loss":[17.9,18.1,18.9,19.5,19.5,20.2,18.2,20.6,15.8,18.5,17.4,18.5,20.6,20.9,20.5,20.3,18.5,18.5,19.1,18.5,19.0,20.5,18.9,17.5]},"geometry":{"type":"Polygon","coordinates":[[[36.9502,-1.0015],[36.952,-0.9095],[36.872,-0.8595],[36.7901,-0.9016],[36.7882,-0.9937],[36.8683,-1.0437],[36.9502,-1.0015]]]}},{"type":"Feature","properties":{"h3":"857a45b7fffffff","canopy2000":47.2,"treeHa2000":21047.9,"loss":[17.5,18.2,16.5,16.8,19.5,17.1,17.9,18.1,18.3,18.2,15.9,17.9,16.0,17.8,15.8,16.5,16.2,17.4,18.4,18.2,17.0,17.5,16.8,16.1]},"geometry":{"type":"Polygon","coordinates":[[[36.7882,-0.9937],[36.7901,-0.9016],[36.7101,-0.8516],[36.6281,-0.8937],[36.6261,-0.9858],[36.7062,-1.0358],[36.7882,-0.9937]]]}},{"type":"Feature","properties":{"h3":"857a6a9bfffffff","canopy2000":50.1,"treeHa2000":17684.5,"loss":[14.4,14.8,15.9,14.8,15.2,14.9,14.7,17.1,14.8,14.1,14.7,14.6,14.1,13.7,14.5,14.6,14.0,14.8,15.7,14.1,14.2,14.8,14.9,14.9]},"geometry":{"type":"Polygon","coordinates":[[[36.3016,-0.97],[36.3037,-0.8778],[36.2236,-0.8278],[36.1414,-0.8698],[36.1392,-0.962],[36.2193,-1.0121],[36.3016,-0.97]]]}},{"type":"Feature","properties":{"h3":"857a6e63fffffff","canopy2000":42.6,"treeHa2000":891.1,"loss":[0.9,1.4,0.8,0.2,0.8,0.8,1.1,0.8,0.4,0.7,0.6,1.1,0.3,1.1,0.8,0.5,0.8,0.8,0.8,0.7,0.7,0.8,0.8,0.7]},"geometry":{"type":"Polygon","coordinates":[[[36.542,-1.1202],[36.544,-1.0279],[36.4639,-0.9779],[36.3817,-1.02],[36.3797,-1.1123],[36.4598,-1.1624],[36.542,-1.1202]]]}},{"type":"Feature","properties":{"h3":"857a6e67fffffff","canopy2000":80.6,"treeHa2000":2091.3,"loss":[1.5,2.3,1.5,1.5,1.7,1.7,1.7,1.8,2.0,1.9,1.5,1.8,2.3,1.4,1.8,2.8,1.7,1.4,1.6,1.8,2.3,1.4,1.6,1.7]},"geometry":{"type":"Polygon","coordinates":[[[36.3797,-1.1123],[36.3817,-1.02],[36.3016,-0.97],[36.2193,-1.0121],[36.2172,-1.1044],[36.2974,-1.1545],[36.3797,-1.1123]]]}},{"type":"Feature","properties":{"h3":"857a6e6bfffffff","canopy2000":39.7,"treeHa2000":19037.8,"loss":[15.2,16.7,17.3,16.6,15.4,15.9,17.2,17.8,15.8,16.4,18.2,15.8,15.8,16.8,17.2,15.2,15.0,15.0,16.6,16.2,14.8,17.5,15.5,15.3]},"geometry":{"type":"Polygon","coordinates":[[[36.6261,-0.9858],[36.6281,-0.8937],[36.5481,-0.8437],[36.466,-0.8857],[36.4639,-0.9779],[36.544,-1.0279],[36.6261,-0.9858]]]}},{"type":"Feature","properties":{"h3":"857a6e6ffffffff","canopy2000":61.0,"treeHa2000":26022.1,"loss":[22.7,21.8,22.2,21.1,23.1,21.7,21.1,22.0,22.0,19.6,22.1,21.3,22.9,22.1,22.6,23.0,20.8,22.3,20.2,22.5,22.2,20.5,24.2,22.8]},"geometry":{"type":"Polygon","coordinates":[[[36.4639,-0.9779],[36.466,-0.8857],[36.3859,-0.8357],[36.3037,-0.8778],[36.3016,-0.97],[36.3817,-1.02],[36.4639,-0.9779]]]}},{"type":"Feature","properties":{"h3":"857a6e7bfffffff","canopy2000":28.1,"treeHa2000":168.9,"loss":[0.2,0.2,0.2,0.1,0.1,0.1,0.3,0.1,0.1,0.2,0.2,0.2,0.2,0.2,0.2,0.1,0.2,0.5,0.1,0.1,0.2,0.2,0.2,0.1]},"geometry":{"type":"Polygon","coordinates":[[[36.7043,-1.128],[36.7062,-1.0358],[36.6261,-0.9858],[36.544,-1.0279],[36.542,-1.1202],[36.6222,-1.1702],[36.7043,-1.128]]]}},{"type":"Feature","properties":{"h3":"857a4083fffffff","canopy2000":56.8,"treeHa2000":18774.9,"loss":[15.7,17.1,14.8,17.3,17.2,14.8,15.7,16.2,14.6,17.4,15.4,14.8,15.5,16.4,14.4,16.6,16.8,17.2,16.9,16.8,18.5,17.5,16.7,13.7]},"geometry":{"type":"Polygon","coordinates":[[[37.8547,-0.0832],[37.8562,0.0079],[37.7767,0.0576],[37.6957,0.0161],[37.6941,-0.0751],[37.7737,-0.1248],[37.8547,-0.0832]]]}},{"type":"Feature","properties":{"h3":"857a4087fffffff","canopy2000":24.8,"treeHa2000":6982.1,"loss":[6.0,5.4,6.4,5.9,5.8,7.9,7.3,5.9,6.0,7.8,6.5,7.0,5.3,5.0,6.0,5.4,5.2,4.8,5.8,5.8,6.2,4.5,6.6,5.8]},"geometry":{"type":"Polygon","coordinates":[[[37.6941,-0.0751],[37.6957,0.0161],[37.6161,0.0658],[37.5349,0.0243],[37.5333,-0.0669],[37.6129,-0.1166],[37.6941,-0.0751]]]}},{"type":"Feature","properties":{"h3":"857a4093fffffff","canopy2000":69.2,"treeHa2000":26866.6,"loss":[24.0,24.0,22.6,24.0,21.5,22.1,20.7,23.2,23.1,22.7,25.5,20.0,20.4,21.1,24.2,25.3,22.8,22.6,22.0,22.5,23.5,20.7,22.2,22.8]},"geometry":{"type":"Polygon","coordinates":[[[37.9328,-0.2242],[37.9343,-0.1329],[37.8547,-0.0832],[37.7737,-0.1248],[37.7721,-0.2161],[37.8517,-0.2658],[37.9328,-0.2242]]]}},{"type":"Feature","properties":{"h3":"857a4097fffffff","canopy2000":44.9,"treeHa2000":22211.3,"loss":[17.6,18.8,16.8,18.9,18.5,19.7,19.2,19.2,17.9,16.1,18.5,16.6,20.4,16.8,18.7,20.7,19.6,17.9,18.0,19.1,17.3,18.8,17.9,17.8]},"geometry":{"type":"Polygon","coordinates":[[[37.7721,-0.2161],[37.7737,-0.1248],[37.6941,-0.0751],[37.6129,-0.1166],[37.6113,-0.208],[37.691,-0.2577],[37.7721,-0.2161]]]}},{"type":"Feature","properties":{"h3":"857a409bfffffff","canopy2000":88.9,"treeHa2000":19570.3,"loss":[15.3,16.2,17.3,18.5,15.7,15.6,16.5,14.8,16.6,17.5,15.8,17.3,17.3,14.5,17.5,17.2,15.6,18.1,15.2,16.9,17.5,15.0,15.0,16.6]},"geometry":{"type":"Polygon","coordinates":[[[38.0153,-0.0914],[38.0167,-0.0002],[37.9372,0.0494],[37.8562,0.0079],[37.8547,-0.0832],[37.9343,-0.1329],[38.0153,-0.0914]]]}},{"type":"Feature","properties":{"h3":"857a40b3fffffff","canopy2000":43.2,"treeHa2000":12897.4,"loss":[11.5,10.5,11.5,10.2,9.9,10.1,10.3,10.2,10.5,10.2,11.0,11.4,10.8,10.5,11.1,9.0,9.9,11.8,10.6,10.5,11.2,10.4,12.1,10.3]},"geometry":{"type":"Polygon","coordinates":[[[37.5333,-0.0669],[37.5349,0.0243],[37.4554,0.074],[37.3741,0.0325],[37.3724,-0.0588],[37.452,-0.1085],[37.5333,-0.0669]]]}},{"type":"Feature","properties":{"h3":"857a40b7fffffff","canopy2000":83.8,"treeHa2000":15253.2,"loss":[13.6,12.4,14.3,13.4,13.5,12.9,12.3,14.2,11.8,11.2,13.8,11.8,11.2,11.1,11.5,12.2,13.0,11.9,13.8,11.8,12.1,13.5,11.9,13.4]},"geometry":{"type":"Polygon","coordinates":[[[37.3724,-0.0588],[37.3741,0.0325],[37.2945,0.0822],[37.2131,0.0407],[37.2114,-0.0506],[37.2911,-0.1003],[37.3724,-0.0588]]]}},{"type":"Feature","properties":{"h3":"857a4467fffffff","canopy2000":78.3,"treeHa2000":10940.5,"loss":[8.9,9.0,8.4,9.6,9.0,8.7,8.2,9.9,8.7,8.2,8.5,8.4,9.8,9.2,9.9,8.0,9.7,9.1,10.0,8.7,9.4,10.1,11.0,8.5]},"geometry":{"type":"Polygon","coordinates":[[[38.0934,-0.2322],[38.0948,-0.141],[38.0153,-0.0914],[37.9343,-0.1329],[37.9328,-0.2242],[38.0124,-0.2738],[38.0934,-0.2322]]]}},{"type":"Feature","properties":{"h3":"857a4547fffffff","canopy2000":58.4,"treeHa2000":25995.2,"loss":[20.9,22.8,24.7,21.5,22.0,20.5,21.6,22.0,21.9,22.5,20.7,21.6,22.0,22.2,22.6,21.8,22.1,23.2,19.6,22.0,24.2,21.1,20.8,23.5]},"geometry":{"type":"Polygon","coordinates":[[[37.3673,-0.333],[37.369,-0.2415],[37.2893,-0.1917],[37.2079,-0.2334],[37.2061,-0.3249],[37.2859,-0.3747],[37.3673,-0.333]]]}},{"type":"Feature","properties":{"h3":"857a454bfffffff","canopy2000":39.4,"treeHa2000":19572.2,"loss":[13.8,15.8,17.7,14.9,14.9,14.1,16.0,15.4,15.8,16.5,17.2,17.5,16.8,16.9,15.1,18.0,16.2,17.1,17.5,18.4,17.2,17.3,17.1,14.7]},"geometry":{"type":"Polygon","coordinates":[[[37.6113,-0.208],[37.6129,-0.1166],[37.5333,-0.0669],[37.452,-0.1085],[37.4504,-0.1999],[37.5301,-0.2496],[37.6113,-0.208]]]}},{"type":"Feature","properties":{"h3":"857a454ffffffff","canopy2000":63.8,"treeHa2000":26480.9,"loss":[22.1,22.3,23.0,24.2,25.1,22.8,22.5,21.2,22.9,22.5,21.5,22.6,22.6,19.6,22.2,21.8,22.2,22.8,19.0,21.8,22.6,21.8,20.5,22.1]},"geometry":{"type":"Polygon","coordinates":[[[37.4504,-0.1999],[37.452,-0.1085],[37.3724,-0.0588],[37.2911,-0.1003],[37.2893,-0.1917],[37.369,-0.2415],[37.4504,-0.1999]]]}},{"type":"Feature","properties":{"h3":"857a456bfffffff","canopy2000":4.2,"treeHa2000":615.5,"loss":[0.2,0.3,0.4,0.6,0.6,0.5,0.7,0.4,0.5,0.2,0.5,0.6,0.2,0.3,0.5,0.5,0.4,0.2,0.2,0.6,0.4,1.2,0.5,1.0]},"geometry":{"type":"Polygon","coordinates":[[[37.2114,-0.0506],[37.2131,0.0407],[37.1335,0.0904],[37.052,0.0489],[37.0502,-0.0424],[37.1299,-0.0922],[37.2114,-0.0506]]]}},{"type":"Feature","properties":{"h3":"857a4573fffffff","canopy2000":2.6,"treeHa2000":1184.0,"loss":[1.0,1.1,0.8,0.7,0.6,1.4,1.1,0.8,0.8,0.8,0.9,1.0,0.6,1.1,1.2,0.8,1.2,0.5,1.2,1.1,1.1,0.8,1.2,1.3]},"geometry":{"type":"Polygon","coordinates":[[[37.2061,-0.3249],[37.2079,-0.2334],[37.1282,-0.1836],[37.0466,-0.2253],[37.0448,-0.3168],[37.1246,-0.3666],[37.2061,-0.3249]]]}},{"type":"Feature","properties":{"h3":"857a457bfffffff","canopy2000":47.3,"treeHa2000":15503.9,"loss":[11.7,12.9,12.0,14.0,14.3,13.2,13.2,11.4,14.0,13.0,13.3,12.7,12.4,12.9,12.8,12.8,13.4,10.5,12.7,13.4,12.7,13.1,14.2,14.0]},"geometry":{"type":"Polygon","coordinates":[[[37.2893,-0.1917],[37.2911,-0.1003],[37.2114,-0.0506],[37.1299,-0.0922],[37.1282,-0.1836],[37.2079,-0.2334],[37.2893,-0.1917]]]}},{"type":"Feature","properties":{"h3":"857a4423fffffff","canopy2000":44.3,"treeHa2000":21545.1,"loss":[17.5,17.3,17.4,19.4,19.4,16.8,16.5,19.1,17.7,17.9,16.6,17.3,18.5,20.2,18.3,18.6,17.8,16.8,18.7,17.9,15.8,18.4,16.0,18.3]},"geometry":{"type":"Polygon","coordinates":[[[37.9284,-0.4983],[37.9299,-0.4069],[37.8502,-0.3571],[37.7691,-0.3988],[37.7675,-0.4903],[37.8472,-0.5401],[37.9284,-0.4983]]]}},{"type":"Feature","properties":{"h3":"857a4427fffffff","canopy2000":79.1,"treeHa2000":27037.7,"loss":[26.1,24.8,22.5,24.1,24.6,22.5,22.7,22.5,24.6,23.4,20.7,19.8,22.3,25.5,21.8,22.3,23.9,20.8,23.9,24.2,22.8,22.8,20.7,23.0]},"geometry":{"type":"Polygon","coordinates":[[[37.7675,-0.4903],[37.7691,-0.3988],[37.6894,-0.3491],[37.6081,-0.3908],[37.6065,-0.4823],[37.6863,-0.5321],[37.7675,-0.4903]]]}},{"type":"Feature","properties":{"h3":"857a442bfffffff","canopy2000":52.0,"treeHa2000":23358.3,"loss":[19.2,19.8,19.5,19.5,18.3,19.9,18.5,20.8,17.4,20.2,18.6,18.5,19.6,21.1,21.2,20.2,20.5,19.1,19.6,17.1,19.5,21.2,18.7,18.7]},"geometry":{"type":"Polygon","coordinates":[[[38.0109,-0.3652],[38.0124,-0.2738],[37.9328,-0.2242],[37.8517,-0.2658],[37.8502,-0.3571],[37.9299,-0.4069],[38.0109,-0.3652]]]}},{"type":"Feature","properties":{"h3":"857a442ffffffff","canopy2000":60.3,"treeHa2000":26464.9,"loss":[22.2,21.2,22.0,25.1,24.1,22.6,21.9,22.3,22.5,20.8,24.7,21.2,22.6,22.8,24.6,20.1,19.2,22.8,21.3,23.3,22.9,23.5,19.5,21.7]},"geometry":{"type":"Polygon","coordinates":[[[37.8502,-0.3571],[37.8517,-0.2658],[37.7721,-0.2161],[37.691,-0.2577],[37.6894,-0.3491],[37.7691,-0.3988],[37.8502,-0.3571]]]}},{"type":"Feature","properties":{"h3":"857a443bfffffff","canopy2000":27.2,"treeHa2000":4987.3,"loss":[4.4,2.9,4.3,3.6,3.8,4.6,4.3,5.5,4.2,3.5,4.6,4.8,4.4,3.5,4.2,4.5,3.7,4.0,4.5,3.9,4.4,3.5,4.4,3.1]},"geometry":{"type":"Polygon","coordinates":[[[38.0891,-0.5063],[38.0905,-0.4149],[38.0109,-0.3652],[37.9299,-0.4069],[37.9284,-0.4983],[38.0081,-0.5481],[38.0891,-0.5063]]]}},{"type":"Feature","properties":{"h3":"857a450bfffffff","canopy2000":17.8,"treeHa2000":8670.4,"loss":[7.2,6.0,6.8,6.7,7.2,7.2,7.3,7.2,7.3,6.6,7.8,6.8,7.2,6.4,7.7,6.9,7.8,7.7,6.9,7.8,7.2,7.2,5.8,7.0]},"geometry":{"type":"Polygon","coordinates":[[[37.2842,-0.4663],[37.2859,-0.3747],[37.2061,-0.3249],[37.1246,-0.3666],[37.1228,-0.4583],[37.2026,-0.5081],[37.2842,-0.4663]]]}},{"type":"Feature","properties":{"h3":"857a4543fffffff","canopy2000":61.0,"treeHa2000":26488.5,"loss":[22.5,21.6,23.5,21.2,22.5,22.2,21.5,21.7,21.0,22.0,22.2,22.1,21.4,20.5,21.5,23.2,21.4,22.3,22.8,21.2,20.8,23.8,22.5,21.8]},"geometry":{"type":"Polygon","coordinates":[[[37.5284,-0.341],[37.5301,-0.2496],[37.4504,-0.1999],[37.369,-0.2415],[37.3673,-0.333],[37.4471,-0.3828],[37.5284,-0.341]]]}},{"type":"Feature","properties":{"h3":"857a4553fffffff","canopy2000":83.3,"treeHa2000":27067.7,"loss":[21.2,21.8,24.8,22.8,21.8,20.7,24.8,23.6,19.6,22.1,22.0,25.4,23.8,23.1,22.3,22.1,20.9,22.3,20.5,23.7,22.7,23.0,23.5,22.5]},"geometry":{"type":"Polygon","coordinates":[[[37.6065,-0.4823],[37.6081,-0.3908],[37.5284,-0.341],[37.4471,-0.3828],[37.4454,-0.4743],[37.5252,-0.5241],[37.6065,-0.4823]]]}},{"type":"Feature","properties":{"h3":"857a4557fffffff","canopy2000":53.7,"treeHa2000":25448.8,"loss":[21.5,20.1,19.2,23.2,21.8,20.8,19.9,19.8,20.7,21.7,20.3,18.6,21.4,22.4,18.3,20.4,20.9,22.8,20.4,19.7,20.5,20.2,21.8,21.4]},"geometry":{"type":"Polygon","coordinates":[[[37.4454,-0.4743],[37.4471,-0.3828],[37.3673,-0.333],[37.2859,-0.3747],[37.2842,-0.4663],[37.364,-0.5161],[37.4454,-0.4743]]]}},{"type":"Feature","properties":{"h3":"857a455bfffffff","canopy2000":64.5,"treeHa2000":26503.5,"loss":[22.5,21.6,22.1,21.8,20.5,23.0,23.7,22.2,19.9,19.6,21.3,23.6,20.3,21.8,22.2,22.1,21.8,20.2,22.9,23.2,22.6,24.0,21.1,22.3]},"geometry":{"type":"Polygon","coordinates":[[[37.6894,-0.3491],[37.691,-0.2577],[37.6113,-0.208],[37.5301,-0.2496],[37.5284,-0.341],[37.6081,-0.3908],[37.6894,-0.3491]]]}},{"type":"Feature","properties":{"h3":"857a4433fffffff","canopy2000":27.4,"treeHa2000":11429.3,"loss":[8.5,8.9,8.8,9.8,9.6,10.2,9.4,8.9,8.2,10.2,8.2,11.5,9.0,8.6,10.3,9.7,8.0,9.2,8.9,9.2,8.3,9.6,10.2,9.6]},"geometry":{"type":"Polygon","coordinates":[[[38.0066,-0.6396],[38.0081,-0.5481],[37.9284,-0.4983],[37.8472,-0.5401],[37.8457,-0.6317],[37.9254,-0.6815],[38.0066,-0.6396]]]}},{"type":"Feature","properties":{"h3":"857a4437fffffff","canopy2000":64.2,"treeHa2000":26197.0,"loss":[21.1,21.5,20.5,21.1,21.2,23.0,22.2,25.3,23.7,22.2,22.6,21.3,23.7,19.5,24.3,23.5,23.6,22.7,19.4,23.1,21.1,21.4,24.3,23.8]},"geometry":{"type":"Polygon","coordinates":[[[37.8457,-0.6317],[37.8472,-0.5401],[37.7675,-0.4903],[37.6863,-0.5321],[37.6847,-0.6237],[37.7645,-0.6735],[37.8457,-0.6317]]]}},{"type":"Feature","properties":{"h3":"857a451bfffffff","canopy2000":31.2,"treeHa2000":14356.9,"loss":[11.8,12.8,11.2,12.1,12.1,13.2,13.6,12.8,11.2,11.5,11.5,13.4,12.2,13.5,11.4,11.8,11.9,9.3,12.8,12.2,10.1,11.9,10.8,10.5]},"geometry":{"type":"Polygon","coordinates":[[[37.3623,-0.6078],[37.364,-0.5161],[37.2842,-0.4663],[37.2026,-0.5081],[37.2009,-0.5998],[37.2807,-0.6497],[37.3623,-0.6078]]]}},{"type":"Feature","properties":{"h3":"857a45cbfffffff","canopy2000":91.3,"treeHa2000":27940.1,"loss":[22.4,23.2,21.2,22.4,22.8,21.0,24.5,25.2,24.7,21.6,24.3,21.0,23.2,24.5,23.2,23.5,21.8,21.2,24.2,23.5,25.2,22.2,24.5,20.2]},"geometry":{"type":"Polygon","coordinates":[[[37.6847,-0.6237],[37.6863,-0.5321],[37.6065,-0.4823],[37.5252,-0.5241],[37.5235,-0.6158],[37.6033,-0.6656],[37.6847,-0.6237]]]}},{"type":"Feature","properties":{"h3":"857a45cffffffff","canopy2000":72.8,"treeHa2000":27033.5,"loss":[22.2,21.5,21.0,24.2,20.8,24.5,20.9,24.2,23.6,23.4,24.2,24.2,22.6,22.7,23.8,20.6,24.2,24.4,22.2,21.8,23.3,23.7,21.7,24.2]},"geometry":{"type":"Polygon","coordinates":[[[37.5235,-0.6158],[37.5252,-0.5241],[37.4454,-0.4743],[37.364,-0.5161],[37.3623,-0.6078],[37.4421,-0.6576],[37.5235,-0.6158]]]}},{"type":"Feature","properties":{"h3":"857a44a3fffffff","canopy2000":66.5,"treeHa2000":26824.6,"loss":[21.8,23.2,24.6,24.8,22.9,22.2,22.9,21.5,22.1,22.5,22.6,21.5,23.1,21.6,22.8,22.4,21.2,21.7,20.6,22.3,22.0,21.2,21.7,21.8]},"geometry":{"type":"Polygon","coordinates":[[[38.0023,-0.9146],[38.0037,-0.8229],[37.924,-0.7731],[37.8427,-0.815],[37.8412,-0.9068],[37.921,-0.9566],[38.0023,-0.9146]]]}},{"type":"Feature","properties":{"h3":"857a44a7fffffff","canopy2000":58.3,"treeHa2000":26447.4,"loss":[22.5,21.8,21.2,22.2,20.0,22.0,21.8,19.5,22.5,21.8,21.8,23.3,21.8,23.4,21.4,23.7,21.6,20.2,22.4,18.9,22.3,22.9,20.8,19.7]},"geometry":{"type":"Polygon","coordinates":[[[37.8412,-0.9068],[37.8427,-0.815],[37.7629,-0.7652],[37.6816,-0.8072],[37.68,-0.899],[37.7598,-0.9488],[37.8412,-0.9068]]]}},{"type":"Feature","properties":{"h3":"857a44abfffffff","canopy2000":40.2,"treeHa2000":9134.9,"loss":[8.3,7.6,7.5,8.2,8.2,7.2,7.0,7.5,7.8,8.3,8.7,8.3,9.3,8.2,7.9,6.3,8.5,10.0,7.8,8.4,8.8,8.2,6.7,7.7]},"geometry":{"type":"Polygon","coordinates":[[[38.0849,-0.781],[38.0863,-0.6894],[38.0066,-0.6396],[37.9254,-0.6815],[37.924,-0.7731],[38.0037,-0.8229],[38.0849,-0.781]]]}},{"type":"Feature","properties":{"h3":"857a44affffffff","canopy2000":50.7,"treeHa2000":24680.6,"loss":[20.2,18.8,22.8,19.4,20.6,19.7,21.8,20.2,22.9,20.8,22.5,21.6,19.2,20.3,22.8,18.5,20.4,17.8,21.7,21.1,19.0,19.0,22.0,17.8]},"geometry":{"type":"Polygon","coordinates":[[[37.924,-0.7731],[37.9254,-0.6815],[37.8457,-0.6317],[37.7645,-0.6735],[37.7629,-0.7652],[37.8427,-0.815],[37.924,-0.7731]]]}},{"type":"Feature","properties":{"h3":"857a4513fffffff","canopy2000":17.0,"treeHa2000":8259.9,"loss":[7.5,6.0,8.0,6.9,7.3,7.2,6.8,6.5,6.3,7.4,5.9,7.5,6.1,6.3,6.4,6.3,7.0,7.5,8.2,8.0,7.2,6.5,6.2,6.8]},"geometry":{"type":"Polygon","coordinates":[[[37.279,-0.7415],[37.2807,-0.6497],[37.2009,-0.5998],[37.1192,-0.6417],[37.1174,-0.7335],[37.1973,-0.7834],[37.279,-0.7415]]]}},{"type":"Feature","properties":{"h3":"857a458bfffffff","canopy2000":60.7,"treeHa2000":26367.5,"loss":[20.1,22.8,21.2,21.8,21.9,23.8,22.3,21.8,23.3,24.0,20.9,23.0,21.2,23.8,21.1,24.2,21.5,22.3,20.0,22.2,21.2,22.1,20.9,22.8]},"geometry":{"type":"Polygon","coordinates":[[[37.3572,-0.8832],[37.3589,-0.7914],[37.279,-0.7415],[37.1973,-0.7834],[37.1956,-0.8753],[37.2755,-0.9253],[37.3572,-0.8832]]]}},{"type":"Feature","properties":{"h3":"857a45c3fffffff","canopy2000":78.0,"treeHa2000":27041.0,"loss":[20.5,22.7,21.8,24.0,20.5,21.1,24.4,24.5,23.5,22.1,23.2,23.8,20.0,24.8,22.2,23.2,20.8,25.0,23.8,22.9,22.9,22.8,20.9,21.5]},"geometry":{"type":"Polygon","coordinates":[[[37.6017,-0.7573],[37.6033,-0.6656],[37.5235,-0.6158],[37.4421,-0.6576],[37.4404,-0.7494],[37.5203,-0.7993],[37.6017,-0.7573]]]}},{"type":"Feature","properties":{"h3":"857a45c7fffffff","canopy2000":53.2,"treeHa2000":24860.7,"loss":[22.3,20.1,19.7,18.8,21.2,19.8,21.5,21.1,21.6,18.7,19.5,20.5,23.5,20.9,21.5,23.0,20.5,19.4,20.2,17.9,21.2,21.3,20.4,18.6]},"geometry":{"type":"Polygon","coordinates":[[[37.4404,-0.7494],[37.4421,-0.6576],[37.3623,-0.6078],[37.2807,-0.6497],[37.279,-0.7415],[37.3589,-0.7914],[37.4404,-0.7494]]]}},{"type":"Feature","properties":{"h3":"857a45d3fffffff","canopy2000":54.3,"treeHa2000":25054.5,"loss":[19.8,22.5,21.5,21.2,21.5,24.4,21.8,17.8,18.7,20.6,20.2,22.2,20.5,22.5,19.6,22.8,22.9,22.2,20.5,21.2,21.8,21.4,21.8,19.3]},"geometry":{"type":"Polygon","coordinates":[[[37.68,-0.899],[37.6816,-0.8072],[37.6017,-0.7573],[37.5203,-0.7993],[37.5186,-0.8911],[37.5985,-0.941],[37.68,-0.899]]]}},{"type":"Feature","properties":{"h3":"857a45d7fffffff","canopy2000":58.2,"treeHa2000":26296.6,"loss":[21.0,20.6,25.3,21.4,21.0,21.2,21.0,22.1,23.2,21.5,19.8,20.1,23.5,21.4,23.3,22.5,23.0,22.1,20.5,21.2,19.8,22.8,21.2,24.9]},"geometry":{"type":"Polygon","coordinates":[[[37.5186,-0.8911],[37.5203,-0.7993],[37.4404,-0.7494],[37.3589,-0.7914],[37.3572,-0.8832],[37.4371,-0.9331],[37.5186,-0.8911]]]}},{"type":"Feature","properties":{"h3":"857a45dbfffffff","canopy2000":75.0,"treeHa2000":27249.8,"loss":[20.0,23.0,20.8,23.5,22.8,22.8,23.5,21.3,23.5,24.4,24.5,22.5,23.6,24.3,23.2,21.5,21.5,22.9,22.3,21.5,25.2,23.8,23.2,25.3]},"geometry":{"type":"Polygon","coordinates":[[[37.7629,-0.7652],[37.7645,-0.6735],[37.6847,-0.6237],[37.6033,-0.6656],[37.6017,-0.7573],[37.6816,-0.8072],[37.7629,-0.7652]]]}},{"type":"Feature","properties":{"h3":"857a44b3fffffff","canopy2000":85.7,"treeHa2000":6399.4,"loss":[4.9,6.6,5.8,5.4,6.0,4.5,5.3,5.1,5.5,6.0,5.5,5.6,4.8,6.5,5.7,4.8,4.2,5.0,4.5,5.2,6.5,4.8,5.2,6.1]},"geometry":{"type":"Polygon","coordinates":[[[38.0806,-1.0563],[38.0821,-0.9644],[38.0023,-0.9146],[37.921,-0.9566],[37.9195,-1.0485],[37.9994,-1.0983],[38.0806,-1.0563]]]}},{"type":"Feature","properties":{"h3":"857a44b7fffffff","canopy2000":70.3,"treeHa2000":13541.2,"loss":[11.7,9.5,12.0,10.8,10.7,11.2,11.2,11.8,10.7,10.6,9.6,11.6,12.0,11.9,10.4,12.7,10.5,9.2,12.4,11.3,10.9,10.5,10.9,10.7]},"geometry":{"type":"Polygon","coordinates":[[[37.9195,-1.0485],[37.921,-0.9566],[37.8412,-0.9068],[37.7598,-0.9488],[37.7583,-1.0407],[37.8382,-1.0906],[37.9195,-1.0485]]]}},{"type":"Feature","properties":{"h3":"857a4583fffffff","canopy2000":36.4,"treeHa2000":8981.5,"loss":[6.1,6.9,6.2,8.2,8.8,6.5,9.7,6.5,8.8,6.5,7.6,7.2,7.1,6.9,7.2,5.7,6.6,7.5,7.2,6.1,7.2,6.8,7.9,7.3]},"geometry":{"type":"Polygon","coordinates":[[[37.2738,-1.0173],[37.2755,-0.9253],[37.1956,-0.8753],[37.1138,-0.9174],[37.1121,-1.0094],[37.1921,-1.0594],[37.2738,-1.0173]]]}},{"type":"Feature","properties":{"h3":"857a459bfffffff","canopy2000":66.5,"treeHa2000":18874.3,"loss":[14.4,16.5,16.0,16.0,14.8,16.0,15.2,16.9,16.4,16.8,16.8,14.6,16.5,15.7,17.1,17.0,16.7,17.3,15.5,15.5,15.1,17.2,16.2,15.8]},"geometry":{"type":"Polygon","coordinates":[[[37.4354,-1.0251],[37.4371,-0.9331],[37.3572,-0.8832],[37.2755,-0.9253],[37.2738,-1.0173],[37.3538,-1.0672],[37.4354,-1.0251]]]}},{"type":"Feature","properties":{"h3":"857a636bfffffff","canopy2000":39.9,"treeHa2000":11317.5,"loss":[9.7,9.0,9.7,11.0,7.8,9.5,8.8,10.3,10.0,8.9,9.6,9.2,8.1,10.9,8.5,10.8,10.1,7.3,10.1,9.6,10.5,10.1,10.5,8.5]},"geometry":{"type":"Polygon","coordinates":[[[37.7583,-1.0407],[37.7598,-0.9488],[37.68,-0.899],[37.5985,-0.941],[37.5969,-1.0329],[37.6768,-1.0828],[37.7583,-1.0407]]]}},{"type":"Feature","properties":{"h3":"857a636ffffffff","canopy2000":38.3,"treeHa2000":11950.6,"loss":[11.3,10.4,9.2,10.0,9.9,10.8,10.3,11.1,9.4,9.6,9.5,10.1,9.6,10.0,10.8,10.9,8.8,9.8,9.9,9.2,10.2,9.0,9.5,10.4]},"geometry":{"type":"Polygon","coordinates":[[[37.5969,-1.0329],[37.5985,-0.941],[37.5186,-0.8911],[37.4371,-0.9331],[37.4354,-1.0251],[37.5154,-1.075],[37.5969,-1.0329]]]}}]}